{"spkid": "54271298", "covariance": {"epoch": "2458978.5", "elements": [{"label": "e", "value": ".3870721517282899", "title": "eccentricity", "units": null, "name": "e", "sigma": 2.69922147745376e-08}, {"label": "q", "name": "q", "sigma": 4.14433664545621e-08, "value": "1.023686690810206", "title": "perihelion distance", "units": "au"}, {"name": "tp", "sigma": 2.37237251459709e-05, "units": "TDB", "value": "2458890.870263545417", "title": "time of perihelion passage", "label": "tp"}, {"sigma": 7.23071732613995e-06, "name": "om", "title": "longitude of the ascending node", "value": "35.94252396853111", "units": "deg", "label": "node"}, {"sigma": 1.51546361305757e-05, "name": "w", "title": "argument of perihelion", "value": "155.5087829049547", "units": "deg", "label": "peri"}, {"label": "i", "name": "i", "sigma": 7.12581326361649e-06, "units": "deg", "value": "12.25375826493385", "title": "inclination"}], "data": [["7.285796584347656E-16", "-1.08789415186197E-15", "-3.333858083563905E-13", "3.905751650679321E-14", "-2.010557980715146E-13", "-5.383547688018362E-14"], ["-1.08789415186197E-15", "1.717552623087126E-15", "3.193759631473185E-13", "-7.651929638907505E-14", "2.234229494397429E-13", "1.011644017347726E-13"], ["-3.333858083563905E-13", "3.193759631473185E-13", "5.628151348015731E-10", "2.901029325040393E-11", "3.029761351285379E-10", "-2.028849081869607E-11"], ["3.905751650679321E-14", "-7.651929638907505E-14", "2.901029325040393E-11", "5.228327305054044E-11", "-2.859924889078365E-11", "-2.53727677497363E-11"], ["-2.010557980715146E-13", "2.234229494397429E-13", "3.029761351285379E-10", "-2.859924889078365E-11", "2.296629962501511E-10", "4.616797785781146E-12"], ["-5.383547688018362E-14", "1.011644017347726E-13", "-2.028849081869607E-11", "-2.53727677497363E-11", "4.616797785781146E-12", "5.07772146679327E-11"]], "labels": ["e", "q", "tp", "node", "peri", "i"]}, "elements": [{"name": "e", "sigma": "2.7157E-8", "units": null, "title": "eccentricity", "value": ".3873597996461603", "label": "e"}, {"sigma": "1.7323E-8", "name": "a", "units": "au", "value": "1.671242114282702", "title": "semi-major axis", "label": "a"}, {"label": "q", "name": "q", "sigma": "4.1317E-8", "units": "au", "value": "1.023870103733929", "title": "perihelion distance"}, {"label": "i", "name": "i", "sigma": "7.1283E-6", "title": "inclination; angle with respect to x-y ecliptic plane", "value": "12.25414010925649", "units": "deg"}, {"label": "node", "value": "35.88295456759534", "title": "longitude of the ascending node", "units": "deg", "name": "om", "sigma": "7.222E-6"}, {"title": "argument of perihelion", "value": "155.6229577313538", "units": "deg", "sigma": "1.5168E-5", "name": "w", "label": "peri"}, {"units": "deg", "title": "mean anomaly", "value": "333.9825871632517", "sigma": "7.5185E-6", "name": "ma", "label": "M"}, {"label": "tp", "value": "2461257.532064250944", "title": "time of perihelion passage", "units": "TDB", "sigma": "1.7238E-5", "name": "tp"}, {"value": "789.1462252288259", "title": "sidereal orbital period", "units": "d", "sigma": "1.2269E-5", "name": "per", "label": "period"}, {"value": ".4561892187922614", "title": "mean motion", "units": "deg/d", "sigma": "7.0927E-9", "name": "n", "label": "n"}, {"value": "2.318614124831475", "title": "aphelion distance", "units": "au", "name": "ad", "sigma": "2.4033E-8", "label": "Q"}], "epoch": "2461200.5"}